CCSDS_OMM_VERS = 2.0
CREATION_DATE  = 
ORIGINATOR     = 

OBJECT_NAME    = SILVERSAT
OBJECT_ID      = 1998-067XV
CENTER_NAME    = EARTH
REF_FRAME      = TEME
TIME_SYSTEM    = UTC
MEAN_ELEMENT_THEORY = SGP/SGP4

EPOCH          = 2026-02-15T08:12:00.573120
MEAN_MOTION    = 15.64826457
ECCENTRICITY   = .0003078
INCLINATION    = 51.6270
RA_OF_ASC_NODE = 178.6757
ARG_OF_PERICENTER = 310.4544
MEAN_ANOMALY   = 49.6183

EPHEMERIS_TYPE = 0
CLASSIFICATION_TYPE = U
NORAD_CAT_ID   = 66909
ELEMENT_SET_NO = 999
REV_AT_EPOCH   = 1168
BSTAR          = .17206E-2
MEAN_MOTION_DOT = .174371E-2
MEAN_MOTION_DDOT = 0

CCSDS_OMM_VERS = 2.0
CREATION_DATE  = 
ORIGINATOR     = 

OBJECT_NAME    = ISS OBJECT XW
OBJECT_ID      = 1998-067XW
CENTER_NAME    = EARTH
REF_FRAME      = TEME
TIME_SYSTEM    = UTC
MEAN_ELEMENT_THEORY = SGP/SGP4

EPOCH          = 2026-02-15T08:44:04.078176
MEAN_MOTION    = 15.63020488
ECCENTRICITY   = .0002467
INCLINATION    = 51.6258
RA_OF_ASC_NODE = 178.8188
ARG_OF_PERICENTER = 338.2660
MEAN_ANOMALY   = 21.8230

EPHEMERIS_TYPE = 0
CLASSIFICATION_TYPE = U
NORAD_CAT_ID   = 66910
ELEMENT_SET_NO = 999
REV_AT_EPOCH   = 1168
BSTAR          = .14344E-2
MEAN_MOTION_DOT = .134589E-2
MEAN_MOTION_DDOT = 0

CCSDS_OMM_VERS = 2.0
CREATION_DATE  = 
ORIGINATOR     = 

OBJECT_NAME    = ISS OBJECT XX
OBJECT_ID      = 1998-067XX
CENTER_NAME    = EARTH
REF_FRAME      = TEME
TIME_SYSTEM    = UTC
MEAN_ELEMENT_THEORY = SGP/SGP4

EPOCH          = 2026-02-15T08:52:34.527648
MEAN_MOTION    = 15.66351755
ECCENTRICITY   = .0004233
INCLINATION    = 51.6240
RA_OF_ASC_NODE = 178.1047
ARG_OF_PERICENTER = 327.6325
MEAN_ANOMALY   = 32.4411

EPHEMERIS_TYPE = 0
CLASSIFICATION_TYPE = U
NORAD_CAT_ID   = 66911
ELEMENT_SET_NO = 999
REV_AT_EPOCH   = 1168
BSTAR          = .18353E-2
MEAN_MOTION_DOT = .198361E-2
MEAN_MOTION_DDOT = 0

CCSDS_OMM_VERS = 2.0
CREATION_DATE  = 
ORIGINATOR     = 

OBJECT_NAME    = ISS OBJECT XY
OBJECT_ID      = 1998-067XY
CENTER_NAME    = EARTH
REF_FRAME      = TEME
TIME_SYSTEM    = UTC
MEAN_ELEMENT_THEORY = SGP/SGP4

EPOCH          = 2026-02-15T09:00:46.408032
MEAN_MOTION    = 15.59794811
ECCENTRICITY   = .0000666
INCLINATION    = 51.6280
RA_OF_ASC_NODE = 179.6545
ARG_OF_PERICENTER = 339.8908
MEAN_ANOMALY   = 20.2059

EPHEMERIS_TYPE = 0
CLASSIFICATION_TYPE = U
NORAD_CAT_ID   = 66912
ELEMENT_SET_NO = 999
REV_AT_EPOCH   = 1166
BSTAR          = .12012E-2
MEAN_MOTION_DOT = .9894E-3
MEAN_MOTION_DDOT = 0

CCSDS_OMM_VERS = 2.0
CREATION_DATE  = 
ORIGINATOR     = 

OBJECT_NAME    = ISS OBJECT XZ
OBJECT_ID      = 1998-067XZ
CENTER_NAME    = EARTH
REF_FRAME      = TEME
TIME_SYSTEM    = UTC
MEAN_ELEMENT_THEORY = SGP/SGP4

EPOCH          = 2026-02-15T11:55:36.148224
MEAN_MOTION    = 15.50022878
ECCENTRICITY   = .001052
INCLINATION    = 51.6308
RA_OF_ASC_NODE = 181.9619
ARG_OF_PERICENTER = 113.9141
MEAN_ANOMALY   = 246.2951

EPHEMERIS_TYPE = 0
CLASSIFICATION_TYPE = U
NORAD_CAT_ID   = 67683
ELEMENT_SET_NO = 999
REV_AT_EPOCH   = 134
BSTAR          = .81486E-3
MEAN_MOTION_DOT = .4645E-3
MEAN_MOTION_DDOT = 0

CCSDS_OMM_VERS = 2.0
CREATION_DATE  = 
ORIGINATOR     = 

OBJECT_NAME    = GXIBA-1
OBJECT_ID      = 1998-067YA
CENTER_NAME    = EARTH
REF_FRAME      = TEME
TIME_SYSTEM    = UTC
MEAN_ELEMENT_THEORY = SGP/SGP4

EPOCH          = 2026-02-15T08:44:21.504192
MEAN_MOTION    = 15.50888908
ECCENTRICITY   = .0012215
INCLINATION    = 51.6307
RA_OF_ASC_NODE = 182.5769
ARG_OF_PERICENTER = 107.0558
MEAN_ANOMALY   = 253.1770

EPHEMERIS_TYPE = 0
CLASSIFICATION_TYPE = U
NORAD_CAT_ID   = 67684
ELEMENT_SET_NO = 999
REV_AT_EPOCH   = 132
BSTAR          = .15234E-2
MEAN_MOTION_DOT = .90547E-3
MEAN_MOTION_DDOT = 0

CCSDS_OMM_VERS = 2.0
CREATION_DATE  = 
ORIGINATOR     = 

OBJECT_NAME    = CORAL
OBJECT_ID      = 1998-067YB
CENTER_NAME    = EARTH
REF_FRAME      = TEME
TIME_SYSTEM    = UTC
MEAN_ELEMENT_THEORY = SGP/SGP4

EPOCH          = 2026-02-14T20:26:08.791296
MEAN_MOTION    = 15.50110637
ECCENTRICITY   = .00124956
INCLINATION    = 51.6306
RA_OF_ASC_NODE = 185.1527
ARG_OF_PERICENTER = 107.6658
MEAN_ANOMALY   = 252.5696

EPHEMERIS_TYPE = 0
CLASSIFICATION_TYPE = U
NORAD_CAT_ID   = 67685
ELEMENT_SET_NO = 999
REV_AT_EPOCH   = 124
BSTAR          = .67417098E-3
MEAN_MOTION_DOT = .38466E-3
MEAN_MOTION_DDOT = 0

CCSDS_OMM_VERS = 2.0
CREATION_DATE  = 
ORIGINATOR     = 

OBJECT_NAME    = ISS OBJECT YC
OBJECT_ID      = 1998-067YC
CENTER_NAME    = EARTH
REF_FRAME      = TEME
TIME_SYSTEM    = UTC
MEAN_ELEMENT_THEORY = SGP/SGP4

EPOCH          = 2026-02-15T10:20:39.611328
MEAN_MOTION    = 15.50346970
ECCENTRICITY   = .0007776
INCLINATION    = 51.6312
RA_OF_ASC_NODE = 182.2730
ARG_OF_PERICENTER = 83.5200
MEAN_ANOMALY   = 276.6675

EPHEMERIS_TYPE = 0
CLASSIFICATION_TYPE = U
NORAD_CAT_ID   = 67686
ELEMENT_SET_NO = 999
REV_AT_EPOCH   = 133
BSTAR          = .10415E-2
MEAN_MOTION_DOT = .60238E-3
MEAN_MOTION_DDOT = 0

CCSDS_OMM_VERS = 2.0
CREATION_DATE  = 
ORIGINATOR     = 

OBJECT_NAME    = LEOPARD
OBJECT_ID      = 1998-067YD
CENTER_NAME    = EARTH
REF_FRAME      = TEME
TIME_SYSTEM    = UTC
MEAN_ELEMENT_THEORY = SGP/SGP4

EPOCH          = 2026-02-15T11:54:56.505312
MEAN_MOTION    = 15.50112628
ECCENTRICITY   = .0007852
INCLINATION    = 51.6312
RA_OF_ASC_NODE = 181.9598
ARG_OF_PERICENTER = 85.6674
MEAN_ANOMALY   = 274.5211

EPHEMERIS_TYPE = 0
CLASSIFICATION_TYPE = U
NORAD_CAT_ID   = 67687
ELEMENT_SET_NO = 999
REV_AT_EPOCH   = 126
BSTAR          = .86091E-3
MEAN_MOTION_DOT = .4923E-3
MEAN_MOTION_DDOT = 0

CCSDS_OMM_VERS = 2.0
CREATION_DATE  = 
ORIGINATOR     = 

OBJECT_NAME    = ISS OBJECT YE
OBJECT_ID      = 1998-067YE
CENTER_NAME    = EARTH
REF_FRAME      = TEME
TIME_SYSTEM    = UTC
MEAN_ELEMENT_THEORY = SGP/SGP4

EPOCH          = 2026-02-15T10:21:00.927936
MEAN_MOTION    = 15.50270355
ECCENTRICITY   = .0007749
INCLINATION    = 51.6313
RA_OF_ASC_NODE = 182.2748
ARG_OF_PERICENTER = 83.8751
MEAN_ANOMALY   = 276.3121

EPHEMERIS_TYPE = 0
CLASSIFICATION_TYPE = U
NORAD_CAT_ID   = 67688
ELEMENT_SET_NO = 999
REV_AT_EPOCH   = 125
BSTAR          = .96631E-3
MEAN_MOTION_DOT = .5567E-3
MEAN_MOTION_DDOT = 0

CCSDS_OMM_VERS = 2.0
CREATION_DATE  = 
ORIGINATOR     = 

OBJECT_NAME    = CREW DRAGON 12
OBJECT_ID      = 2026-031A
CENTER_NAME    = EARTH
REF_FRAME      = TEME
TIME_SYSTEM    = UTC
MEAN_ELEMENT_THEORY = SGP/SGP4

EPOCH          = 2026-02-15T04:22:41.614176
MEAN_MOTION    = 15.48615434
ECCENTRICITY   = .00110479
INCLINATION    = 51.6317
RA_OF_ASC_NODE = 183.6135
ARG_OF_PERICENTER = 100.3471
MEAN_ANOMALY   = 259.8763

EPHEMERIS_TYPE = 0
CLASSIFICATION_TYPE = U
NORAD_CAT_ID   = 67796
ELEMENT_SET_NO = 999
REV_AT_EPOCH   = 26
BSTAR          = .21745046E-3
MEAN_MOTION_DOT = .11408E-3
MEAN_MOTION_DDOT = 0

